XRISM                   
1 57800U 23137A   23344.57294679  .00002758  00000+0  21632-3 0  9999
2 57800  31.0021 137.2906 0009981 129.8243 230.3272 14.98863554 14112
